STARLINK-36319          
1 67970U 26038K   26082.50003471 -.02413520  00000+0 -49673-1 0  9994
2 67970  97.2853  93.3314 0001626 139.1011 107.8075 15.49258642  5390
STARLINK-36710          
1 67971U 26038L   26082.50003471 -.02432739  00000+0 -53947-1 0  9997
2 67971  97.2855  93.3882 0001496  71.9085 305.8317 15.47159037  5421
STARLINK-36894          
1 67972U 26038M   26082.50003471 -.02274365  00000+0 -50756-1 0  9992
2 67972  97.2854  93.3953 0001414 105.9090 285.0625 15.47336092  5423
STARLINK-36900          
1 67973U 26038N   26082.29110038  .00110079  00000+0  19934-2 0  9998
2 67973  97.2855  93.0536 0001944 104.2444 255.9023 15.49247532  5310
STARLINK-36901          
1 67974U 26038P   26082.50003471 -.02217990  00000+0 -48252-1 0  9993
2 67974  97.2863  93.3992 0001384  64.9836 334.4340 15.47967443  5429
STARLINK-36883          
1 67975U 26038Q   26082.50003471  .00078606  00000+0  14347-2 0  9998
2 67975  97.2861  93.3857 0002100 105.0098 261.8111 15.49146173  5422
STARLINK-36880          
1 67976U 26038R   26082.49568495  .00086082  00000+0  15634-2 0  9996
2 67976  97.2866  93.2345 0000476 327.0899  33.0322 15.49258715  5348
STARLINK-36904          
1 67977U 26038S   26082.50003471  .00075039  00000+0  13702-2 0  9991
2 67977  97.2860  93.3808 0001222 116.0870 239.6811 15.49148231  5420
STARLINK-36364          
1 67978U 26038T   26082.50003471 -.02317545  00000+0 -48531-1 0  9994
2 67978  97.2851  93.4366 0001843  67.1529  64.2571 15.49219103  5429
STARLINK-36359          
1 67979U 26038U   26082.50003471 -.01738180  00000+0 -35194-1 0  9997
2 67979  97.2853  93.3900 0001785  67.5719 315.9668 15.49708219  5429
STARLINK-36882          
1 67980U 26038V   26082.50003471  .00078069  00000+0  14251-2 0  9991
2 67980  97.2860  93.3817 0001121  99.8249 258.6061 15.49145866  5429
STARLINK-36874          
1 67981U 26038W   26082.50003471 -.02340604  00000+0 -49145-1 0  9992
2 67981  97.2850  93.4433 0001731  80.5340  66.3816 15.49184938  5425
STARLINK-36879          
1 67982U 26038X   26082.47974268  .00056837  00000+0  10373-2 0  9990
2 67982  97.2888  93.2556 0000963  66.4913 293.6440 15.49241493  5345
STARLINK-36867          
1 67983U 26038Y   26082.46646941  .00103861  00000+0  18810-2 0  9998
2 67983  97.2860  93.2744 0001368  49.3729 310.7641 15.49268736  5343
STARLINK-36266          
1 67984U 26038Z   26082.50003471 -.02525575  00000+0 -51442-1 0  9990
2 67984  97.2851  93.4529 0002327  94.2642  77.3037 15.49704426  5397
STARLINK-36802          
1 67985U 26038AA  26082.29924171  .00288618  00000+0  18605-2 0  9991
2 67985  97.2880  93.3366 0002024  88.2848 271.8649 15.75323408  5333
STARLINK-36535          
1 67986U 26039A   26082.50003471 -.01904572  00000+0 -43588-1 0  9992
2 67986  43.0001 331.8136 0001864 267.6760 158.3288 15.45254799  5094
