[{"OBJECT_NAME":"STARLINK-36319","OBJECT_ID":"2026-038K","EPOCH":"2026-03-23T12:00:02.998944","MEAN_MOTION":15.49258642,"ECCENTRICITY":0.0001626,"INCLINATION":97.2853,"RA_OF_ASC_NODE":93.3314,"ARG_OF_PERICENTER":139.1011,"MEAN_ANOMALY":107.8075,"EPHEMERIS_TYPE":0,"CLASSIFICATION_TYPE":"U","NORAD_CAT_ID":67970,"ELEMENT_SET_NO":999,"REV_AT_EPOCH":539,"BSTAR":-0.049673,"MEAN_MOTION_DOT":-0.0241352,"MEAN_MOTION_DDOT":0},{"OBJECT_NAME":"STARLINK-36710","OBJECT_ID":"2026-038L","EPOCH":"2026-03-23T12:00:02.998944","MEAN_MOTION":15.47159037,"ECCENTRICITY":0.0001496,"INCLINATION":97.2855,"RA_OF_ASC_NODE":93.3882,"ARG_OF_PERICENTER":71.9085,"MEAN_ANOMALY":305.8317,"EPHEMERIS_TYPE":0,"CLASSIFICATION_TYPE":"U","NORAD_CAT_ID":67971,"ELEMENT_SET_NO":999,"REV_AT_EPOCH":542,"BSTAR":-0.053947,"MEAN_MOTION_DOT":-0.02432739,"MEAN_MOTION_DDOT":0},{"OBJECT_NAME":"STARLINK-36894","OBJECT_ID":"2026-038M","EPOCH":"2026-03-23T12:00:02.998944","MEAN_MOTION":15.47336092,"ECCENTRICITY":0.0001414,"INCLINATION":97.2854,"RA_OF_ASC_NODE":93.3953,"ARG_OF_PERICENTER":105.909,"MEAN_ANOMALY":285.0625,"EPHEMERIS_TYPE":0,"CLASSIFICATION_TYPE":"U","NORAD_CAT_ID":67972,"ELEMENT_SET_NO":999,"REV_AT_EPOCH":542,"BSTAR":-0.050756,"MEAN_MOTION_DOT":-0.02274365,"MEAN_MOTION_DDOT":0},{"OBJECT_NAME":"STARLINK-36900","OBJECT_ID":"2026-038N","EPOCH":"2026-03-23T06:59:11.072832","MEAN_MOTION":15.49247532,"ECCENTRICITY":0.0001944,"INCLINATION":97.2855,"RA_OF_ASC_NODE":93.0536,"ARG_OF_PERICENTER":104.2444,"MEAN_ANOMALY":255.9023,"EPHEMERIS_TYPE":0,"CLASSIFICATION_TYPE":"U","NORAD_CAT_ID":67973,"ELEMENT_SET_NO":999,"REV_AT_EPOCH":531,"BSTAR":0.0019934,"MEAN_MOTION_DOT":0.00110079,"MEAN_MOTION_DDOT":0},{"OBJECT_NAME":"STARLINK-36901","OBJECT_ID":"2026-038P","EPOCH":"2026-03-23T12:00:02.998944","MEAN_MOTION":15.47967443,"ECCENTRICITY":0.0001384,"INCLINATION":97.2863,"RA_OF_ASC_NODE":93.3992,"ARG_OF_PERICENTER":64.9836,"MEAN_ANOMALY":334.434,"EPHEMERIS_TYPE":0,"CLASSIFICATION_TYPE":"U","NORAD_CAT_ID":67974,"ELEMENT_SET_NO":999,"REV_AT_EPOCH":542,"BSTAR":-0.048252,"MEAN_MOTION_DOT":-0.0221799,"MEAN_MOTION_DDOT":0},{"OBJECT_NAME":"STARLINK-36883","OBJECT_ID":"2026-038Q","EPOCH":"2026-03-23T12:00:02.998944","MEAN_MOTION":15.49146173,"ECCENTRICITY":0.00021,"INCLINATION":97.2861,"RA_OF_ASC_NODE":93.3857,"ARG_OF_PERICENTER":105.0098,"MEAN_ANOMALY":261.8111,"EPHEMERIS_TYPE":0,"CLASSIFICATION_TYPE":"U","NORAD_CAT_ID":67975,"ELEMENT_SET_NO":999,"REV_AT_EPOCH":542,"BSTAR":0.0014347,"MEAN_MOTION_DOT":0.00078606,"MEAN_MOTION_DDOT":0},{"OBJECT_NAME":"STARLINK-36880","OBJECT_ID":"2026-038R","EPOCH":"2026-03-23T11:53:47.179680","MEAN_MOTION":15.49258715,"ECCENTRICITY":4.76e-5,"INCLINATION":97.2866,"RA_OF_ASC_NODE":93.2345,"ARG_OF_PERICENTER":327.0899,"MEAN_ANOMALY":33.0322,"EPHEMERIS_TYPE":0,"CLASSIFICATION_TYPE":"U","NORAD_CAT_ID":67976,"ELEMENT_SET_NO":999,"REV_AT_EPOCH":534,"BSTAR":0.0015634,"MEAN_MOTION_DOT":0.00086082,"MEAN_MOTION_DDOT":0},{"OBJECT_NAME":"STARLINK-36904","OBJECT_ID":"2026-038S","EPOCH":"2026-03-23T12:00:02.998944","MEAN_MOTION":15.49148231,"ECCENTRICITY":0.0001222,"INCLINATION":97.286,"RA_OF_ASC_NODE":93.3808,"ARG_OF_PERICENTER":116.087,"MEAN_ANOMALY":239.6811,"EPHEMERIS_TYPE":0,"CLASSIFICATION_TYPE":"U","NORAD_CAT_ID":67977,"ELEMENT_SET_NO":999,"REV_AT_EPOCH":542,"BSTAR":0.0013702,"MEAN_MOTION_DOT":0.00075039,"MEAN_MOTION_DDOT":0},{"OBJECT_NAME":"STARLINK-36364","OBJECT_ID":"2026-038T","EPOCH":"2026-03-23T12:00:02.998944","MEAN_MOTION":15.49219103,"ECCENTRICITY":0.0001843,"INCLINATION":97.2851,"RA_OF_ASC_NODE":93.4366,"ARG_OF_PERICENTER":67.1529,"MEAN_ANOMALY":64.2571,"EPHEMERIS_TYPE":0,"CLASSIFICATION_TYPE":"U","NORAD_CAT_ID":67978,"ELEMENT_SET_NO":999,"REV_AT_EPOCH":542,"BSTAR":-0.048531,"MEAN_MOTION_DOT":-0.02317545,"MEAN_MOTION_DDOT":0},{"OBJECT_NAME":"STARLINK-36359","OBJECT_ID":"2026-038U","EPOCH":"2026-03-23T12:00:02.998944","MEAN_MOTION":15.49708219,"ECCENTRICITY":0.0001785,"INCLINATION":97.2853,"RA_OF_ASC_NODE":93.39,"ARG_OF_PERICENTER":67.5719,"MEAN_ANOMALY":315.9668,"EPHEMERIS_TYPE":0,"CLASSIFICATION_TYPE":"U","NORAD_CAT_ID":67979,"ELEMENT_SET_NO":999,"REV_AT_EPOCH":542,"BSTAR":-0.035194,"MEAN_MOTION_DOT":-0.0173818,"MEAN_MOTION_DDOT":0},{"OBJECT_NAME":"STARLINK-36882","OBJECT_ID":"2026-038V","EPOCH":"2026-03-23T12:00:02.998944","MEAN_MOTION":15.49145866,"ECCENTRICITY":0.0001121,"INCLINATION":97.286,"RA_OF_ASC_NODE":93.3817,"ARG_OF_PERICENTER":99.8249,"MEAN_ANOMALY":258.6061,"EPHEMERIS_TYPE":0,"CLASSIFICATION_TYPE":"U","NORAD_CAT_ID":67980,"ELEMENT_SET_NO":999,"REV_AT_EPOCH":542,"BSTAR":0.0014251,"MEAN_MOTION_DOT":0.00078069,"MEAN_MOTION_DDOT":0},{"OBJECT_NAME":"STARLINK-36874","OBJECT_ID":"2026-038W","EPOCH":"2026-03-23T12:00:02.998944","MEAN_MOTION":15.49184938,"ECCENTRICITY":0.0001731,"INCLINATION":97.285,"RA_OF_ASC_NODE":93.4433,"ARG_OF_PERICENTER":80.534,"MEAN_ANOMALY":66.3816,"EPHEMERIS_TYPE":0,"CLASSIFICATION_TYPE":"U","NORAD_CAT_ID":67981,"ELEMENT_SET_NO":999,"REV_AT_EPOCH":542,"BSTAR":-0.049145,"MEAN_MOTION_DOT":-0.02340604,"MEAN_MOTION_DDOT":0},{"OBJECT_NAME":"STARLINK-36879","OBJECT_ID":"2026-038X","EPOCH":"2026-03-23T11:30:49.767552","MEAN_MOTION":15.49241493,"ECCENTRICITY":9.63e-5,"INCLINATION":97.2888,"RA_OF_ASC_NODE":93.2556,"ARG_OF_PERICENTER":66.4913,"MEAN_ANOMALY":293.644,"EPHEMERIS_TYPE":0,"CLASSIFICATION_TYPE":"U","NORAD_CAT_ID":67982,"ELEMENT_SET_NO":999,"REV_AT_EPOCH":534,"BSTAR":0.0010373,"MEAN_MOTION_DOT":0.00056837,"MEAN_MOTION_DDOT":0},{"OBJECT_NAME":"STARLINK-36867","OBJECT_ID":"2026-038Y","EPOCH":"2026-03-23T11:11:42.957024","MEAN_MOTION":15.49268736,"ECCENTRICITY":0.0001368,"INCLINATION":97.286,"RA_OF_ASC_NODE":93.2744,"ARG_OF_PERICENTER":49.3729,"MEAN_ANOMALY":310.7641,"EPHEMERIS_TYPE":0,"CLASSIFICATION_TYPE":"U","NORAD_CAT_ID":67983,"ELEMENT_SET_NO":999,"REV_AT_EPOCH":534,"BSTAR":0.001881,"MEAN_MOTION_DOT":0.00103861,"MEAN_MOTION_DDOT":0},{"OBJECT_NAME":"STARLINK-36266","OBJECT_ID":"2026-038Z","EPOCH":"2026-03-23T12:00:02.998944","MEAN_MOTION":15.49704426,"ECCENTRICITY":0.0002327,"INCLINATION":97.2851,"RA_OF_ASC_NODE":93.4529,"ARG_OF_PERICENTER":94.2642,"MEAN_ANOMALY":77.3037,"EPHEMERIS_TYPE":0,"CLASSIFICATION_TYPE":"U","NORAD_CAT_ID":67984,"ELEMENT_SET_NO":999,"REV_AT_EPOCH":539,"BSTAR":-0.051442,"MEAN_MOTION_DOT":-0.02525575,"MEAN_MOTION_DDOT":0},{"OBJECT_NAME":"STARLINK-36802","OBJECT_ID":"2026-038AA","EPOCH":"2026-03-23T07:10:54.483744","MEAN_MOTION":15.75323408,"ECCENTRICITY":0.0002024,"INCLINATION":97.288,"RA_OF_ASC_NODE":93.3366,"ARG_OF_PERICENTER":88.2848,"MEAN_ANOMALY":271.8649,"EPHEMERIS_TYPE":0,"CLASSIFICATION_TYPE":"U","NORAD_CAT_ID":67985,"ELEMENT_SET_NO":999,"REV_AT_EPOCH":533,"BSTAR":0.0018605,"MEAN_MOTION_DOT":0.00288618,"MEAN_MOTION_DDOT":0},{"OBJECT_NAME":"STARLINK-36535","OBJECT_ID":"2026-039A","EPOCH":"2026-03-23T12:00:02.998944","MEAN_MOTION":15.45254799,"ECCENTRICITY":0.0001864,"INCLINATION":43.0001,"RA_OF_ASC_NODE":331.8136,"ARG_OF_PERICENTER":267.676,"MEAN_ANOMALY":158.3288,"EPHEMERIS_TYPE":0,"CLASSIFICATION_TYPE":"U","NORAD_CAT_ID":67986,"ELEMENT_SET_NO":999,"REV_AT_EPOCH":509,"BSTAR":-0.043588,"MEAN_MOTION_DOT":-0.01904572,"MEAN_MOTION_DDOT":0}]
